LEMUR-2-PETERG          
1 42841U 17042S   26068.48235713  .00023240  00000+0  81076-3 0  9993
2 42841  97.3980 253.6596 0003700 341.6938  18.4169 15.29611459473171
STARLINK-30400          
1 57937U 23148C   26068.17015527  .00000231  00000+0  19912-4 0  9990
2 57937  53.1615  26.6044 0001096  73.1298 286.9823 15.30192178138346
