[{"OBJECT_NAME":"LEMUR-2-PETERG","OBJECT_ID":"2017-042S","EPOCH":"2026-03-09T11:34:35.656032","MEAN_MOTION":15.29611459,"ECCENTRICITY":0.00037,"INCLINATION":97.398,"RA_OF_ASC_NODE":253.6596,"ARG_OF_PERICENTER":341.6938,"MEAN_ANOMALY":18.4169,"EPHEMERIS_TYPE":0,"CLASSIFICATION_TYPE":"U","NORAD_CAT_ID":42841,"ELEMENT_SET_NO":999,"REV_AT_EPOCH":47317,"BSTAR":0.00081076471,"MEAN_MOTION_DOT":0.0002324,"MEAN_MOTION_DDOT":0},{"OBJECT_NAME":"STARLINK-30400","OBJECT_ID":"2023-148C","EPOCH":"2026-03-09T04:05:01.415328","MEAN_MOTION":15.30192178,"ECCENTRICITY":0.00010965,"INCLINATION":53.1615,"RA_OF_ASC_NODE":26.6044,"ARG_OF_PERICENTER":73.1298,"MEAN_ANOMALY":286.9823,"EPHEMERIS_TYPE":0,"CLASSIFICATION_TYPE":"U","NORAD_CAT_ID":57937,"ELEMENT_SET_NO":999,"REV_AT_EPOCH":13834,"BSTAR":1.991246e-5,"MEAN_MOTION_DOT":2.31e-6,"MEAN_MOTION_DDOT":0}]
